{"type": "FeatureCollection", "features": [ {"type": "Feature", "properties": {"norad_id": 43437, "name": "SENTINEL-3B", "group": "resource", "lat": -16.71554850493893, "lon": -120.09942386145471, "alt_km": 807.8015712878278, "timestamp": "2025-12-23T11:34:47.839568+00:00", "meta": {"OBJECT_NAME": "SENTINEL-3B", "OBJECT_ID": "2018-039A", "EPOCH": "2025-12-23T03:55:41.259936", "MEAN_MOTION": 14.26737963, "ECCENTRICITY": 0.0001614, "INCLINATION": 98.6253, "RA_OF_ASC_NODE": 62.199, "ARG_OF_PERICENTER": 91.6163, "MEAN_ANOMALY": 268.5202, "EPHEMERIS_TYPE": 0, "CLASSIFICATION_TYPE": "U", "NORAD_CAT_ID": 43437, "ELEMENT_SET_NO": 999, "REV_AT_EPOCH": 39902, "BSTAR": 7.7591e-05, "MEAN_MOTION_DOT": 1.44e-06, "MEAN_MOTION_DDOT": 0}, "tle": {"line1": "1 43437U 18039A   25357.16367199  .00000144  00000+0  77591-4 0  9997", "line2": "2 43437  98.6253  62.1990 0001614  91.6163 268.5202 14.26737963399027"}}, "geometry": {"type": "Point", "coordinates": [-120.09942386145471, -16.71554850493893]}}, {"type": "Feature", "properties": {"norad_id": 43461, "name": "GAOFEN-5 01", "group": "resource", "lat": 45.741410621830326, "lon": -48.12012755186692, "alt_km": 688.1334972489349, "timestamp": "2025-12-23T11:34:47.839577+00:00", "meta": {"OBJECT_NAME": "GAOFEN-5 01", "OBJECT_ID": "2018-043A", "EPOCH": "2025-12-22T22:12:48.981024", "MEAN_MOTION": 14.60420499, "ECCENTRICITY": 5.17e-05, "INCLINATION": 98.4342, "RA_OF_ASC_NODE": 320.0714, "ARG_OF_PERICENTER": 264.8511, "MEAN_ANOMALY": 95.263, "EPHEMERIS_TYPE": 0, "CLASSIFICATION_TYPE": "U", "NORAD_CAT_ID": 43461, "ELEMENT_SET_NO": 999, "REV_AT_EPOCH": 40596, "BSTAR": 0.00010514, "MEAN_MOTION_DOT": 4.6e-06, "MEAN_MOTION_DDOT": 0}, "tle": {"line1": "1 43461U 18043A   25356.92556691  .00000460  00000+0  10514-3 0  9991", "line2": "2 43461  98.4342 320.0714 0000517 264.8511  95.2630 14.60420499405965"}}, "geometry": {"type": "Point", "coordinates": [-48.12012755186692, 45.741410621830326]}}, {"type": "Feature", "properties": {"norad_id": 43484, "name": "GAOFEN-6", "group": "resource", "lat": -54.02114912437112, "lon": 72.27489291947774, "alt_km": 646.5942538252384, "timestamp": "2025-12-23T11:34:47.839587+00:00", "meta": {"OBJECT_NAME": "GAOFEN-6", "OBJECT_ID": "2018-048A", "EPOCH": "2025-12-23T05:19:18.569280", "MEAN_MOTION": 14.76584464, "ECCENTRICITY": 0.001267, "INCLINATION": 97.802, "RA_OF_ASC_NODE": 61.1365, "ARG_OF_PERICENTER": 32.6476, "MEAN_ANOMALY": 327.5515, "EPHEMERIS_TYPE": 0, "CLASSIFICATION_TYPE": "U", "NORAD_CAT_ID": 43484, "ELEMENT_SET_NO": 999, "REV_AT_EPOCH": 40742, "BSTAR": 0.00015603, "MEAN_MOTION_DOT": 1.041e-05, "MEAN_MOTION_DDOT": 0}, "tle": {"line1": "1 43484U 18048A   25357.22174270  .00001041  00000+0  15603-3 0  9994", "line2": "2 43484  97.8020  61.1365 0012670  32.6476 327.5515 14.76584464407421"}}, "geometry": {"type": "Point", "coordinates": [72.27489291947774, -54.02114912437112]}}, {"type": "Feature", "properties": {"norad_id": 43585, "name": "GAOFEN-11 01", "group": "resource", "lat": 41.965379777876656, "lon": 53.84203566922654, "alt_km": 417.0230868408462, "timestamp": "2025-12-23T11:34:47.839596+00:00", "meta": {"OBJECT_NAME": "GAOFEN-11 01", "OBJECT_ID": "2018-063A", "EPOCH": "2025-12-23T05:11:52.872288", "MEAN_MOTION": 15.49503327, "ECCENTRICITY": 0.00039, "INCLINATION": 97.1546, "RA_OF_ASC_NODE": 60.0646, "ARG_OF_PERICENTER": 258.0937, "MEAN_ANOMALY": 101.9877, "EPHEMERIS_TYPE": 0, "CLASSIFICATION_TYPE": "U", "NORAD_CAT_ID": 43585, "ELEMENT_SET_NO": 999, "REV_AT_EPOCH": 41304, "BSTAR": 0.00029371, "MEAN_MOTION_DOT": 0.00016099, "MEAN_MOTION_DDOT": 0}, "tle": {"line1": "1 43585U 18063A   25357.21658417  .00016099  00000+0  29371-3 0  9998", "line2": "2 43585  97.1546  60.0646 0003900 258.0937 101.9877 15.49503327413041"}}, "geometry": {"type": "Point", "coordinates": [53.84203566922654, 41.965379777876656]}}, {"type": "Feature", "properties": {"norad_id": 43613, "name": "ICESAT-2", "group": "resource", "lat": 41.07859168202875, "lon": -118.11248871882296, "alt_km": 477.28118918887594, "timestamp": "2025-12-23T11:34:47.839605+00:00", "meta": {"OBJECT_NAME": "ICESAT-2", "OBJECT_ID": "2018-070A", "EPOCH": "2025-12-23T03:32:35.968128", "MEAN_MOTION": 15.28297788, "ECCENTRICITY": 0.0003161, "INCLINATION": 92.004, "RA_OF_ASC_NODE": 243.5463, "ARG_OF_PERICENTER": 119.3229, "MEAN_ANOMALY": 240.8337, "EPHEMERIS_TYPE": 0, "CLASSIFICATION_TYPE": "U", "NORAD_CAT_ID": 43613, "ELEMENT_SET_NO": 999, "REV_AT_EPOCH": 40557, "BSTAR": 0.00048474, "MEAN_MOTION_DOT": 0.00013363, "MEAN_MOTION_DDOT": 0}, "tle": {"line1": "1 43613U 18070A   25357.14763852  .00013363  00000+0  48474-3 0  9996", "line2": "2 43613  92.0040 243.5463 0003161 119.3229 240.8337 15.28297788405574"}}, "geometry": {"type": "Point", "coordinates": [-118.11248871882296, 41.07859168202875]}}, {"type": "Feature", "properties": {"norad_id": 43719, "name": "HYSIS", "group": "resource", "lat": 60.37335544771696, "lon": 46.0741242977193, "alt_km": 627.0533545028056, "timestamp": "2025-12-23T11:34:47.839613+00:00", "meta": {"OBJECT_NAME": "HYSIS", "OBJECT_ID": "2018-096A", "EPOCH": "2025-12-23T04:48:25.689312", "MEAN_MOTION": 14.78670618, "ECCENTRICITY": 8.82e-05, "INCLINATION": 98.0085, "RA_OF_ASC_NODE": 60.1266, "ARG_OF_PERICENTER": 53.9626, "MEAN_ANOMALY": 306.1666, "EPHEMERIS_TYPE": 0, "CLASSIFICATION_TYPE": "U", "NORAD_CAT_ID": 43719, "ELEMENT_SET_NO": 999, "REV_AT_EPOCH": 38141, "BSTAR": 0.00015076, "MEAN_MOTION_DOT": 1.053e-05, "MEAN_MOTION_DDOT": 0}, "tle": {"line1": "1 43719U 18096A   25357.20029733  .00001053  00000+0  15076-3 0  9996", "line2": "2 43719  98.0085  60.1266 0000882  53.9626 306.1666 14.78670618381419"}}, "geometry": {"type": "Point", "coordinates": [46.0741242977193, 60.37335544771696]}}, {"type": "Feature", "properties": {"norad_id": 43783, "name": "KAZSTSAT", "group": "resource", "lat": 16.443259083567433, "lon": 29.990539243597212, "alt_km": 569.8475168884306, "timestamp": "2025-12-23T11:34:47.839622+00:00", "meta": {"OBJECT_NAME": "KAZSTSAT", "OBJECT_ID": "2018-099AB", "EPOCH": "2025-12-23T01:53:46.104576", "MEAN_MOTION": 14.99368841, "ECCENTRICITY": 0.0006148, "INCLINATION": 97.4519, "RA_OF_ASC_NODE": 31.8184, "ARG_OF_PERICENTER": 283.8147, "MEAN_ANOMALY": 76.2392, "EPHEMERIS_TYPE": 0, "CLASSIFICATION_TYPE": "U", "NORAD_CAT_ID": 43783, "ELEMENT_SET_NO": 999, "REV_AT_EPOCH": 38491, "BSTAR": 4.7682e-05, "MEAN_MOTION_DOT": 5.27e-06, "MEAN_MOTION_DDOT": 0}, "tle": {"line1": "1 43783U 18099AB  25357.07900584  .00000527  00000+0  47682-4 0  9991", "line2": "2 43783  97.4519  31.8184 0006148 283.8147  76.2392 14.99368841384916"}}, "geometry": {"type": "Point", "coordinates": [29.990539243597212, 16.443259083567433]}}, {"type": "Feature", "properties": {"norad_id": 43831, "name": "SAUDISAT 5A", "group": "resource", "lat": 6.870839486419793, "lon": 56.57693754031272, "alt_km": 484.350331086207, "timestamp": "2025-12-23T11:34:47.839631+00:00", "meta": {"OBJECT_NAME": "SAUDISAT 5A", "OBJECT_ID": "2018-102A", "EPOCH": "2025-12-23T05:15:13.779936", "MEAN_MOTION": 15.2577962, "ECCENTRICITY": 0.001121, "INCLINATION": 97.3333, "RA_OF_ASC_NODE": 57.2076, "ARG_OF_PERICENTER": 43.8297, "MEAN_ANOMALY": 316.3829, "EPHEMERIS_TYPE": 0, "CLASSIFICATION_TYPE": "U", "NORAD_CAT_ID": 43831, "ELEMENT_SET_NO": 999, "REV_AT_EPOCH": 38882, "BSTAR": 0.00026596, "MEAN_MOTION_DOT": 6.734e-05, "MEAN_MOTION_DDOT": 0}, "tle": {"line1": "1 43831U 18102A   25357.21890949  .00006734  00000+0  26596-3 0  9995", "line2": "2 43831  97.3333  57.2076 0011210  43.8297 316.3829 15.25779620388829"}}, "geometry": {"type": "Point", "coordinates": [56.57693754031272, 6.870839486419793]}}, {"type": "Feature", "properties": {"norad_id": 43833, "name": "SAUDISAT 5B", "group": "resource", "lat": 71.44218686424715, "lon": 37.63489404382249, "alt_km": 473.28079115243327, "timestamp": "2025-12-23T11:34:47.839640+00:00", "meta": {"OBJECT_NAME": "SAUDISAT 5B", "OBJECT_ID": "2018-102C", "EPOCH": "2025-12-23T04:58:04.363680", "MEAN_MOTION": 15.26126583, "ECCENTRICITY": 0.0011952, "INCLINATION": 97.343, "RA_OF_ASC_NODE": 59.9534, "ARG_OF_PERICENTER": 45.8211, "MEAN_ANOMALY": 314.4008, "EPHEMERIS_TYPE": 0, "CLASSIFICATION_TYPE": "U", "NORAD_CAT_ID": 43833, "ELEMENT_SET_NO": 999, "REV_AT_EPOCH": 38893, "BSTAR": 0.0002687, "MEAN_MOTION_DOT": 6.877e-05, "MEAN_MOTION_DDOT": 0}, "tle": {"line1": "1 43833U 18102C   25357.20699495  .00006877  00000+0  26870-3 0  9992", "line2": "2 43833  97.3430  59.9534 0011952  45.8211 314.4008 15.26126583388933"}}, "geometry": {"type": "Point", "coordinates": [37.63489404382249, 71.44218686424715]}}, {"type": "Feature", "properties": {"norad_id": 44622, "name": "GAOFEN-10R", "group": "resource", "lat": 33.35086956611542, "lon": 130.3619380039475, "alt_km": 621.9689669567933, "timestamp": "2025-12-23T11:34:47.839650+00:00", "meta": {"OBJECT_NAME": "GAOFEN-10R", "OBJECT_ID": "2019-066A", "EPOCH": "2025-12-23T04:26:42.551808", "MEAN_MOTION": 14.82825814, "ECCENTRICITY": 0.0007152, "INCLINATION": 98.0292, "RA_OF_ASC_NODE": 304.7329, "ARG_OF_PERICENTER": 11.2366, "MEAN_ANOMALY": 348.9006, "EPHEMERIS_TYPE": 0, "CLASSIFICATION_TYPE": "U", "NORAD_CAT_ID": 44622, "ELEMENT_SET_NO": 999, "REV_AT_EPOCH": 33629, "BSTAR": 0.0001961, "MEAN_MOTION_DOT": 1.533e-05, "MEAN_MOTION_DDOT": 0}, "tle": {"line1": "1 44622U 19066A   25357.18521472  .00001533  00000+0  19610-3 0  9993", "line2": "2 44622  98.0292 304.7329 0007152  11.2366 348.9006 14.82825814336298"}}, "geometry": {"type": "Point", "coordinates": [130.3619380039475, 33.35086956611542]}}]}